GSAT0225 (GALILEO 29)   
1 59598U 24079A   26174.59374531 -.00000034  00000+0  00000+0 0  9991
2 59598  55.1233 100.9008 0001706 299.0990 258.4278  1.70474099 13424
GSAT0227 (GALILEO 30)   
1 59600U 24079C   26174.45530327 -.00000033  00000+0  00000+0 0  9996
2 59600  55.1185 100.9033 0002419  58.0764 301.9236  1.70473918 13478
GSAT0232 (GALILEO 32)   
1 61182U 24167A   26174.68416168  .00000046  00000+0  00000+0 0  9996
2 61182  55.1833 221.1353 0006244 229.3467 126.7036  1.70474403 10984
GSAT0226 (GALILEO 31)   
1 61183U 24167B   26175.16363493  .00000050  00000+0  00000+0 0  9998
2 61183  55.1820 221.1292 0002945 231.0291 150.6225  1.70474440 10978
BEIDOU-3 M25            
1 61186U 24168B   26174.99111059 -.00000109  00000+0  00000+0 0  9997
2 61186  54.4667 302.0055 0003080 299.6481 120.0107  1.86230274 11917
BEIDOU-3 M27            
1 61187U 24168C   26174.69963936 -.00000109  00000+0  00000+0 0  9994
2 61187  54.4622 301.9985 0001470  49.4418 309.8302  1.86230327  9371
NAVSTAR 83 (USA 440)    
1 62339U 24242A   26175.07163780 -.00000105  00000+0  00000+0 0  9995
2 62339  54.8449 333.9015 0017498   4.4663 175.6685  2.00571925 11398
QZS-6 (MICHIBIKI-6)     
1 62876U 25023A   26174.40414094 -.00000228  00000+0  00000+0 0  9998
2 62876   0.0684  75.7960 0002080  19.3264  52.4257  1.00269593  5014
COSMOS 2584 [GLONASS-K2]
1 63130U 25042A   26174.24058150 -.00000067  00000+0  00000+0 0  9993
2 63130  65.0880  72.5961 0006598 228.8314 131.1446  2.13103825 10172
NAVSTAR 84 (USA 545)    
1 64202U 25116A   26174.81582529 -.00000098  00000+0  00000+0 0  9995
2 64202  55.2396  30.8630 0008286 339.1810 199.1690  2.00575606  8009
COSMOS 2596 [GLONASS-K1]
1 65590U 25206B   26174.56746730 -.00000082  00000+0  00000+0 0  9997
2 65590  64.6305 314.7627 0011000 310.5654  56.4396  2.13100914  6052
GSAT0233 (GALILEO 33)   
1 67160U 25302A   26170.57978300 -.00000013  00000+0  00000+0 0  9990
2 67160  54.3370 102.0625 0000767 220.2514 324.6772  1.70473973  3168
GSAT0234 (GALILEO 34)   
1 67162U 25302C   26171.44712830 -.00000015  00000+0  00000+0 0  9995
2 67162  54.3393 102.0369 0002889 311.1148 226.2302  1.70474042  3232
NAVSTAR 85 (USA 581)    
1 67588U 26017A   26174.67859423 -.00000060  00000+0  00000+0 0  9999
2 67588  55.0923  88.4946 0021822 258.7607 100.9960  2.00571043431745
NAVSTAR 86 (USA 585)    
1 68791U 26087A   26173.65141046  .00000058  00000+0  00000+0 0  9991
2 68791  54.9627 207.5713 0020681 106.6591  76.9843  2.00570839   940
